KUIPER-00089            
1 64834U 25151U   25227.92404695  .00079916  00000+0  22428-2 0  9997
2 64834  51.8790 139.8414 0005309 267.5048  92.5330 15.35843554  4702
KUIPER-00090            
1 64835U 25151V   25227.92855803  .00039296  00000+0  11269-2 0  9997
2 64835  51.8785 139.8674 0005357 268.5683  91.4689 15.35490134  4701
KUIPER-00091            
1 64836U 25151W   25227.91547924  .00026619  00000+0  75435-3 0  9990
2 64836  51.8773 139.7806 0005375 237.3283 122.7185 15.36058193  4700
KUIPER-00092            
1 64837U 25151X   25227.91868630  .00033064  00000+0  93406-3 0  9991
2 64837  51.8772 139.7968 0005283 250.2843 109.7574 15.36043202  5919
KUIPER-00093            
1 64838U 25151Y   25227.92316378  .00032401  00000+0  92255-3 0  9995
2 64838  51.8791 139.8367 0005030 254.5102 105.5328 15.35808576  4709
KUIPER-00094            
1 64839U 25151Z   25227.91828030  .00028994  00000+0  82280-3 0  9997
2 64839  51.8771 139.7950 0005354 253.2004 106.8395 15.35968889  4703
